QZS-6 (MICHIBIKI-6)     
1 62876U 25023A   26198.65017396 -.00000243  00000+0  00000+0 0  9992
2 62876   0.0098  26.5074 0001827  88.4808 144.9842  1.00274836  5251
ZHONGXING-10R           
1 63075U 25036A   26198.66998133 -.00000361  00000+0  00000+0 0  9997
2 63075   0.0249 173.0605 0004278 333.8174 140.3150  1.00271163  5268
TJS-15                  
1 63157U 25045A   26197.71363396 -.00000276  00000+0  00000+0 0  9995
2 63157   0.3110  85.6500 0003093 293.4061 266.7738  1.00273452  5056
TIANLIAN 2-04           
1 63361U 25062A   26198.64015703 -.00000143  00000+0  00000+0 0  9993
2 63361   4.2976 274.0018 0031477   9.3691 322.5610  1.00272408  4907
TJS-16                  
1 63397U 25064A   26198.76510066 -.00000115  00000+0  00000+0 0  9998
2 63397   1.1752  81.2699 0002463 293.7256 356.6288  1.00271118  4698
TJS-17                  
1 63524U 25073A   26198.76822333 -.00000080  00000+0  00000+0 0  9994
2 63524   1.1413  82.4327 0000998 311.4885 342.7131  1.00271108  4593
TIANLIAN 2-05           
1 63662U 25084A   26198.65267939  .00000116  00000+0  00000+0 0  9991
2 63662   4.3752 279.4883 0002657 155.8497 115.4545  1.00272827  4688
TJS-19                  
1 63924U 25097A   26197.77154308 -.00000284  00000+0  00000+0 0  9990
2 63924   3.2376 317.9333 0004110 252.7576 142.8472  1.00275203  4446
CHINASAT 3B             
1 64062U 25106A   26198.58616733 -.00000055  00000+0  00000+0 0  9996
2 64062   0.0287 169.0751 0004087 337.4057 167.2493  1.00271533  4361
SXM-10                  
1 64290U 25122A   26198.32892035 -.00000027  00000+0  00000+0 0  9999
2 64290   0.0201  47.6280 0001795 312.6690 297.0930  1.00271653  3987
COSMOS 2589             
1 64467U 25131A   26198.28724160 -.00000300  00000+0  00000+0 0  9997
2 64467   0.0265 115.1086 0001010  69.5553 311.8551  1.00268276  3862
CHINASAT 9C             
1 64470U 25132A   26198.14358988  .00000000  00000+0  00000+0 0  9994
2 64470   0.0213  83.4358 0003103  30.9366 324.4712  1.00266186  4449
MTG-S1                  
1 64723U 25143A   26198.62421418 -.00000016  00000+0  00000+0 0  9997
2 64723   0.5833 345.6907 0003357 260.0967 273.9825  1.00274262  3727
DROR 1                  
1 64784U 25148A   26198.62343418 -.00000044  00000+0  00000+0 0  9993
2 64784   0.0467 240.3184 0002004 158.9179 116.6405  1.00272505  3600
SHIYAN-29               
1 65486U 25196A   26196.70123477 -.00000287  00000+0  00000+0 0  9993
2 65486  28.8520  18.1755 0013258 177.9039  85.2184  1.00276249  3167
NUSANTARA LIMA (NUSANT*)
1 65588U 25205A   26198.58971352  .00000000  00000+0  00000+0 0  9990
2 65588   0.0155  95.2614 0000409  80.5686  84.7271  1.00270044  3020
TJS-20                  
1 66142U 25238A   26198.42279831  .00000016  00000+0  00000+0 0  9996
2 66142   5.4028 299.4360 0004366 183.1360  27.3687  1.00276002  2636
CMS-03 (GSAT-7R)        
1 66311U 25249B   26198.63903035  .00000000  00000+0  00000+0 0  9992
2 66311   0.0129  54.5868 0002341  63.5350 121.3852  1.00269552  2654
VIASAT-3 F2             
1 66454U 25261A   26198.18099346 -.00000244  00000+0  00000+0 0  9996
2 66454   0.0064 229.4913 0000588 344.5735  67.1225  1.00271828  3093
SHIJIAN-28 (SJ-28)      
1 66549U 25277A   26198.64748716 -.00000368  00000+0  00000+0 0  9998
2 66549   4.4607 271.6490 0001266  52.8986 320.8028  1.00275598  2467
TJS-22                  
1 66990U 25290A   26193.80754925 -.00000005  00000+0  00000+0 0  9993
2 66990   1.4677 286.9097 0002691 318.9700  42.0235  1.00269739  2289
TJS-23                  
1 67226U 25306A   26197.52110644  .00000011  00000+0  00000+0 0  9997
2 67226   5.5227 297.3324 0005046 196.0418 164.1642  1.00275812  2181
FENGYUN 4C              
1 67246U 25312A   26194.65865777 -.00000328  00000+0  00000+0 0  9993
2 67246   0.0385 175.3203 0000658  48.7481  77.5697  1.00269440  2048
SHIJIAN-29A (SJ-29A)    
1 67302U 25315A   26198.76151859 -.00000078  00000+0  00000+0 0  9996
2 67302   3.4739  94.3741 0004951  51.4467 137.0678  1.00272804  1928
SHIJIAN-29B (SJ-29B)    
1 67403U 25315C   26198.76151897 -.00000079  00000+0  00000+0 0  9991
2 67403   3.4728  94.3670 0005121  54.2330 134.3389  1.00273079  1990
ELEKTRO-L 5             
1 67756U 26028A   26197.96973929 -.00000108  00000+0  00000+0 0  9996
2 67756   0.2053 325.7479 0002076 175.9879 218.2585  1.00271877  1545
JAM-E JAM 1             
1 67757U 26028B   26198.63731005  .00000146  00000+0  00000+0 0  9990
2 67757   0.2018 314.2008 0001585 318.9675 285.7670  1.00275377  1425
ECHOSTAR 25             
1 68126U 26045A   26198.38873814 -.00000066  00000+0  00000+0 0  9999
2 68126   0.0027 142.6885 0001805 328.7779 213.6732  1.00270610  1298
TJS-24                  
1 69235U 26116A   26198.65017381 -.00000240  00000+0  00000+0 0  9993
2 69235   0.0836  94.4109 0000363 109.2630  56.1241  1.00269341   537
