OBJECT_NAME,OBJECT_ID,EPOCH,MEAN_MOTION,ECCENTRICITY,INCLINATION,RA_OF_ASC_NODE,ARG_OF_PERICENTER,MEAN_ANOMALY,EPHEMERIS_TYPE,CLASSIFICATION_TYPE,NORAD_CAT_ID,ELEMENT_SET_NO,REV_AT_EPOCH,BSTAR,MEAN_MOTION_DOT,MEAN_MOTION_DDOT
QZS-6 (MICHIBIKI-6),2025-023A,2026-07-17T15:36:15.030144,1.00274836,.00018273,0.0098,26.5074,88.4808,144.9842,0,U,62876,999,525,0,-.243E-5,0
ZHONGXING-10R,2025-036A,2026-07-17T16:04:46.386912,1.00271163,.00042788,0.0249,173.0605,333.8174,140.3150,0,U,63075,999,526,0,-.361E-5,0
TJS-15,2025-045A,2026-07-16T17:07:37.974144,1.00273452,.0003093,0.3110,85.6500,293.4061,266.7738,0,U,63157,999,505,0,-.276E-5,0
TIANLIAN 2-04,2025-062A,2026-07-17T15:21:49.567392,1.00272408,.00314771,4.2976,274.0018,9.3691,322.5610,0,U,63361,999,490,0,-.143E-5,0
TJS-16,2025-064A,2026-07-17T18:21:44.697024,1.00271118,.0002463,1.1752,81.2699,293.7256,356.6288,0,U,63397,999,469,0,-.115E-5,0
TJS-17,2025-073A,2026-07-17T18:26:14.495712,1.00271108,.0000998,1.1413,82.4327,311.4885,342.7131,0,U,63524,999,459,0,-.8E-6,0
TIANLIAN 2-05,2025-084A,2026-07-17T15:39:51.499296,1.00272827,.0002657,4.3752,279.4883,155.8497,115.4545,0,U,63662,999,468,0,.116E-5,0
TJS-19,2025-097A,2026-07-16T18:31:01.322112,1.00275203,.000411,3.2376,317.9333,252.7576,142.8472,0,U,63924,999,444,0,-.284E-5,0
CHINASAT 3B,2025-106A,2026-07-17T14:04:04.857312,1.00271533,.00040871,0.0287,169.0751,337.4057,167.2493,0,U,64062,999,436,0,-.55E-6,0
SXM-10,2025-122A,2026-07-17T07:53:38.718240,1.00271653,.00017953,0.0201,47.6280,312.6690,297.0930,0,U,64290,999,398,0,-.27E-6,0
COSMOS 2589,2025-131A,2026-07-17T06:53:37.674240,1.00268276,.000101,0.0265,115.1086,69.5553,311.8551,0,U,64467,999,386,0,-.3E-5,0
CHINASAT 9C,2025-132A,2026-07-17T03:26:46.165632,1.00266186,.00031039,0.0213,83.4358,30.9366,324.4712,0,U,64470,999,444,0,0,0
MTG-S1,2025-143A,2026-07-17T14:58:52.105152,1.00274262,.00033571,0.5833,345.6907,260.0967,273.9825,0,U,64723,999,372,0,-.16E-6,0
DROR 1,2025-148A,2026-07-17T14:57:44.713152,1.00272505,.00020041,0.0467,240.3184,158.9179,116.6405,0,U,64784,999,360,0,-.44E-6,0
SHIYAN-29,2025-196A,2026-07-15T16:49:46.684128,1.00276249,.0013258,28.8520,18.1755,177.9039,85.2184,0,U,65486,999,316,0,-.287E-5,0
NUSANTARA LIMA (NUSANTARA 5),2025-205A,2026-07-17T14:09:11.248128,1.00270044,.00004094,0.0155,95.2614,80.5686,84.7271,0,U,65588,999,302,0,0,0
TJS-20,2025-238A,2026-07-17T10:08:49.773984,1.00276002,.00043663,5.4028,299.4360,183.1360,27.3687,0,U,66142,999,263,0,.16E-6,0
CMS-03 (GSAT-7R),2025-249B,2026-07-17T15:20:12.222240,1.00269552,.00023414,0.0129,54.5868,63.5350,121.3852,0,U,66311,999,265,0,0,0
VIASAT-3 F2,2025-261A,2026-07-17T04:20:37.834944,1.00271828,.00005887,0.0064,229.4913,344.5735,67.1225,0,U,66454,999,309,0,-.244E-5,0
SHIJIAN-28 (SJ-28),2025-277A,2026-07-17T15:32:22.890624,1.00275598,.00012669,4.4607,271.6490,52.8986,320.8028,0,U,66549,999,246,0,-.368E-5,0
TJS-22,2025-290A,2026-07-12T19:22:52.255200,1.00269739,.0002691,1.4677,286.9097,318.9700,42.0235,0,U,66990,999,228,0,-.5E-7,0
TJS-23,2025-306A,2026-07-16T12:30:23.596416,1.00275812,.0005046,5.5227,297.3324,196.0418,164.1642,0,U,67226,999,218,0,.11E-6,0
FENGYUN 4C,2025-312A,2026-07-13T15:48:28.031328,1.00269440,.00006584,0.0385,175.3203,48.7481,77.5697,0,U,67246,999,204,0,-.328E-5,0
SHIJIAN-29A (SJ-29A),2025-315A,2026-07-17T18:16:35.206176,1.00272804,.0004951,3.4739,94.3741,51.4467,137.0678,0,U,67302,999,192,0,-.78E-6,0
SHIJIAN-29B (SJ-29B),2025-315C,2026-07-17T18:16:35.239008,1.00273079,.0005121,3.4728,94.3670,54.2330,134.3389,0,U,67403,999,199,0,-.79E-6,0
ELEKTRO-L 5,2026-028A,2026-07-16T23:16:25.474656,1.00271877,.00020769,0.2053,325.7479,175.9879,218.2585,0,U,67756,999,154,0,-.108E-5,0
JAM-E JAM 1,2026-028B,2026-07-17T15:17:43.588320,1.00275377,.00015851,0.2018,314.2008,318.9675,285.7670,0,U,67757,999,142,0,.146E-5,0
ECHOSTAR 25,2026-045A,2026-07-17T09:19:46.975296,1.00270610,.00018058,0.0027,142.6885,328.7779,213.6732,0,U,68126,999,129,0,-.66E-6,0
TJS-24,2026-116A,2026-07-17T15:36:15.017184,1.00269341,.00003633,0.0836,94.4109,109.2630,56.1241,0,U,69235,999,53,0,-.24E-5,0
